sat12725
1 12725U 81053BS  20046.82656519  .00000483  00000-0  43848-3 0  9993
2 12725  83.1418 219.1100 0106504  80.8814 345.4427 13.78920066922175
